STARLINK-37909          
1 69566U 26135W   26189.51604560  .00304925  00000+0  15297-2 0  9990
2 69566  97.2847 217.8275 0000711  65.1998 294.9345 15.80929529  3638
STARLINK-37934          
1 69567U 26135X   26188.44312228  .00293381  00000+0  14681-2 0  9998
2 69567  97.2845 216.6838 0003261 125.2579 234.8995 15.81011723  3469
STARLINK-37938          
1 69568U 26135Y   26189.50002315 -.02511131  00000+0 -24353-1 0  9996
2 69568  97.2846 217.7893 0001806 102.7742 121.0121 15.69610649  4736
STARLINK-37924          
1 69569U 26135Z   26189.51416864 -.00822588  00000+0 -49083-2 0  9993
2 69569  97.2853 217.8286 0001946  54.8531 305.2918 15.79930835  3631
CZ-3B R/B               
1 69571U 26136B   26189.13906256  .00337556 -28850-6  50089-3 0  9998
2 69571  63.4369 351.8959 7282905 171.4799 216.6680  2.34677450   515
GUOWANG OBJECT A        
1 69572U 26137A   26189.43436318 -.00000150  00000+0 -30948-5 0  9992
2 69572  49.9994 170.8108 0012564 296.1044  63.8561 13.89812407  2974
GUOWANG OBJECT B        
1 69573U 26137B   26189.35956454 -.00000227  00000+0 -65250-4 0  9990
2 69573  50.0021 171.0804 0011860 294.6952  65.2711 13.89803895  2978
GUOWANG OBJECT C        
1 69574U 26137C   26189.43038066 -.00000137  00000+0  72704-5 0  9992
2 69574  49.9958 170.7748 0011906 296.7574  63.2106 13.89814835  2985
GUOWANG OBJECT D        
1 69575U 26137D   26189.42925802 -.00000167  00000+0 -16880-4 0  9991
2 69575  49.9953 170.7670 0011087 295.1220  64.8527 13.89827864  2986
GUOWANG OBJECT E        
1 69576U 26137E   26189.42827593 -.00000237  00000+0 -73571-4 0  9998
2 69576  50.0033 170.7849 0011243 298.1450  61.8312 13.89825054  2987
GUOWANG OBJECT F        
1 69577U 26137F   26189.42743411 -.00000229  00000+0 -67526-4 0  9999
2 69577  50.0025 170.7781 0010839 297.9618  62.0183 13.89809501  2985
GUOWANG OBJECT G        
1 69578U 26137G   26189.42655169 -.00000236  00000+0 -73002-4 0  9996
2 69578  49.9952 170.7539 0010829 297.8370  62.1430 13.89794518  2983
GUOWANG OBJECT H        
1 69579U 26137H   26176.48489301  .00000037  00000+0  14270-3 0  9990
2 69579  49.9967 222.2731 0010122 259.8752 100.1006 13.92076941  1185
GUOWANG OBJECT J        
1 69580U 26137J   26178.27848690  .00000022  00000+0  13174-3 0  9997
2 69580  49.9961 215.0979 0011832 257.3150 102.6427 13.91997107  1436
CZ-12 R/B               
1 69581U 26137K   26189.25393118  .00000028  00000+0  96501-4 0  9990
2 69581  49.9879 168.4576 0077462 185.9630 174.0362 14.11693088  2985
CENTISPACE-1 GROUP 05 O*
1 69582U 26138A   26189.46830963 -.00000238  00000+0 -43157-4 0  9993
2 69582  55.1385 202.5891 0010898 329.2434  30.7901 14.15470902  3038
CENTISPACE-1 GROUP 05 O*
1 69583U 26138B   26189.53618144 -.00000309  00000+0 -78822-4 0  9993
2 69583  55.1381 202.3124 0009874 329.6802  30.3600 14.15651379  3049
CENTISPACE-1 GROUP 05 O*
1 69584U 26138C   26189.32307692 -.00000344  00000+0 -96527-4 0  9995
2 69584  55.1387 203.0965 0009768 330.8302  29.2125 14.15735462  3010
CENTISPACE-1 GROUP 05 O*
1 69585U 26138D   26189.53228067 -.00000410  00000+0 -12963-3 0  9992
2 69585  55.1387 202.2919 0009366 330.4117  29.6326 14.15921737  3047
CENTISPACE-1 GROUP 05 O*
1 69586U 26138E   26189.53128235 -.00000398  00000+0 -12313-3 0  9993
2 69586  55.1380 202.2937 0009100 330.8164  29.2301 14.15988649  3047
CENTISPACE-1 GROUP 05 O*
1 69587U 26138F   26189.46166824 -.00000392  00000+0 -12062-3 0  9997
2 69587  55.1383 202.5612 0008989 334.9573  25.0964 14.15911758  3032
CENTISPACE-1 GROUP 05 O*
1 69588U 26138G   26189.52976346 -.00000440  00000+0 -14433-3 0  9991
2 69588  55.1383 202.2843 0008273 334.8054  25.2516 14.16075982  3042
SPACEMOBILE-008         
1 69589U 26139A   26189.41414475  .00000553  00000+0  48131-4 0  9997
2 69589  52.9938 166.1941 0004704  40.1803 319.9535 15.12795607  3195
SPACEMOBILE-009         
1 69590U 26139B   26189.34955796  .00000530  00000+0  46945-4 0  9993
2 69590  52.9928 166.4987 0004937  35.3944 324.7374 15.12688799  3186
SPACEMOBILE-010         
1 69591U 26139C   26189.41798456  .00000482  00000+0  44398-4 0  9996
2 69591  52.9933 166.2159 0004820  26.6938 333.4300 15.12519992  3206
KUIPER-00423            
1 69592U 26140A   26189.55717971  .00027414  00000+0  71587-3 0  9990
2 69592  51.8830 295.2033 0013731 246.8188 113.1353 15.38502926  4523
KUIPER-00428            
1 69593U 26140B   26189.52359466  .00010506  00000+0  29739-3 0  9995
2 69593  51.8799 295.7192 0007643   9.9023 350.2113 15.36835528  4512
KUIPER-00481            
1 69594U 26140C   26189.50079488  .00018557  00000+0  49911-3 0  9995
2 69594  51.8780 295.5684 0011119 254.4485 105.5275 15.37869838  4511
KUIPER-00490            
1 69595U 26140D   26189.51036292  .00018123  00000+0  48870-3 0  9995
2 69595  51.8771 295.6258 0005837 315.5304  44.5214 15.37848414  4511
