OBJECT_NAME,OBJECT_ID,EPOCH,MEAN_MOTION,ECCENTRICITY,INCLINATION,RA_OF_ASC_NODE,ARG_OF_PERICENTER,MEAN_ANOMALY,EPHEMERIS_TYPE,CLASSIFICATION_TYPE,NORAD_CAT_ID,ELEMENT_SET_NO,REV_AT_EPOCH,BSTAR,MEAN_MOTION_DOT,MEAN_MOTION_DDOT
STARLINK-37909,2026-135W,2026-07-08T12:23:06.339840,15.80929529,.00007118,97.2847,217.8275,65.1998,294.9345,0,U,69566,999,363,.15296787E-2,.304925E-2,0
STARLINK-37934,2026-135X,2026-07-07T10:38:05.764992,15.81011723,.00032614,97.2845,216.6838,125.2579,234.8995,0,U,69567,999,346,.14681327E-2,.293381E-2,0
STARLINK-37938,2026-135Y,2026-07-08T12:00:02.000160,15.69610649,.00018068,97.2846,217.7893,102.7742,121.0121,0,U,69568,999,473,-.24352929E-1,-.2511131E-1,0
STARLINK-37924,2026-135Z,2026-07-08T12:20:24.170496,15.79930835,.00019465,97.2853,217.8286,54.8531,305.2918,0,U,69569,999,363,-.49083459E-2,-.822588E-2,0
CZ-3B R/B,2026-136B,2026-07-08T03:20:15.005184,2.34677450,.72829054,63.4369,351.8959,171.4799,216.6680,0,U,69571,999,51,.50088612E-3,.337556E-2,-.288501E-6
GUOWANG OBJECT A,2026-137A,2026-07-08T10:25:28.978752,13.89812407,.0012564,49.9994,170.8108,296.1044,63.8561,0,U,69572,999,297,-.309482E-5,-.15E-5,0
GUOWANG OBJECT B,2026-137B,2026-07-08T08:37:46.376256,13.89803895,.00118601,50.0021,171.0804,294.6952,65.2711,0,U,69573,999,297,-.6525032E-4,-.227E-5,0
GUOWANG OBJECT C,2026-137C,2026-07-08T10:19:44.889024,13.89814835,.00119061,49.9958,170.7748,296.7574,63.2106,0,U,69574,999,298,.7270436E-5,-.137E-5,0
GUOWANG OBJECT D,2026-137D,2026-07-08T10:18:07.892928,13.89827864,.00110878,49.9953,170.7670,295.1220,64.8527,0,U,69575,999,298,-.16880249E-4,-.167E-5,0
GUOWANG OBJECT E,2026-137E,2026-07-08T10:16:43.040352,13.89825054,.00112432,50.0033,170.7849,298.1450,61.8312,0,U,69576,999,298,-.73571262E-4,-.237E-5,0
GUOWANG OBJECT F,2026-137F,2026-07-08T10:15:30.307104,13.89809501,.00108391,50.0025,170.7781,297.9618,62.0183,0,U,69577,999,298,-.6752611E-4,-.229E-5,0
GUOWANG OBJECT G,2026-137G,2026-07-08T10:14:14.066016,13.89794518,.00108292,49.9952,170.7539,297.8370,62.1430,0,U,69578,999,298,-.73002346E-4,-.236E-5,0
GUOWANG OBJECT H,2026-137H,2026-06-25T11:38:14.756064,13.92076941,.0010122,49.9967,222.2731,259.8752,100.1006,0,U,69579,999,118,.1427E-3,.37E-6,0
GUOWANG OBJECT J,2026-137J,2026-06-27T06:41:01.268160,13.91997107,.0011832,49.9961,215.0979,257.3150,102.6427,0,U,69580,999,143,.13174E-3,.22E-6,0
CZ-12 R/B,2026-137K,2026-07-08T06:05:39.653952,14.11693088,.00774622,49.9879,168.4576,185.9630,174.0362,0,U,69581,999,298,.96501492E-4,.28E-6,0
CENTISPACE-1 GROUP 05 OBJECT A,2026-138A,2026-07-08T11:14:21.952032,14.15470902,.00108981,55.1385,202.5891,329.2434,30.7901,0,U,69582,999,303,-.43157486E-4,-.238E-5,0
CENTISPACE-1 GROUP 05 OBJECT B,2026-138B,2026-07-08T12:52:06.076416,14.15651379,.00098749,55.1381,202.3124,329.6802,30.3600,0,U,69583,999,304,-.78822452E-4,-.309E-5,0
CENTISPACE-1 GROUP 05 OBJECT C,2026-138C,2026-07-08T07:45:13.845888,14.15735462,.00097685,55.1387,203.0965,330.8302,29.2125,0,U,69584,999,301,-.96526588E-4,-.344E-5,0
CENTISPACE-1 GROUP 05 OBJECT D,2026-138D,2026-07-08T12:46:29.049888,14.15921737,.00093666,55.1387,202.2919,330.4117,29.6326,0,U,69585,999,304,-.12962791E-3,-.41E-5,0
CENTISPACE-1 GROUP 05 OBJECT E,2026-138E,2026-07-08T12:45:02.795040,14.15988649,.00091004,55.1380,202.2937,330.8164,29.2301,0,U,69586,999,304,-.12312877E-3,-.398E-5,0
CENTISPACE-1 GROUP 05 OBJECT F,2026-138F,2026-07-08T11:04:48.135936,14.15911758,.00089898,55.1383,202.5612,334.9573,25.0964,0,U,69587,999,303,-.12061768E-3,-.392E-5,0
CENTISPACE-1 GROUP 05 OBJECT G,2026-138G,2026-07-08T12:42:51.562944,14.16075982,.00082734,55.1383,202.2843,334.8054,25.2516,0,U,69588,999,304,-.14433311E-3,-.44E-5,0
SPACEMOBILE-008,2026-139A,2026-07-08T09:56:22.106400,15.12795607,.00047044,52.9938,166.1941,40.1803,319.9535,0,U,69589,999,319,.48130817E-4,.553E-5,0
SPACEMOBILE-009,2026-139B,2026-07-08T08:23:21.807744,15.12688799,.00049379,52.9928,166.4987,35.3944,324.7374,0,U,69590,999,318,.46944963E-4,.53E-5,0
SPACEMOBILE-010,2026-139C,2026-07-08T10:01:53.865984,15.12519992,.000482,52.9933,166.2159,26.6938,333.4300,0,U,69591,999,320,.44398179E-4,.482E-5,0
KUIPER-00423,2026-140A,2026-07-08T13:22:20.326944,15.38502926,.00137318,51.8830,295.2033,246.8188,113.1353,0,U,69592,999,452,.71586802E-3,.27414E-3,0
KUIPER-00428,2026-140B,2026-07-08T12:33:58.578624,15.36835528,.00076432,51.8799,295.7192,9.9023,350.2113,0,U,69593,999,451,.29739427E-3,.10506E-3,0
KUIPER-00481,2026-140C,2026-07-08T12:01:08.677632,15.37869838,.00111193,51.8780,295.5684,254.4485,105.5275,0,U,69594,999,451,.49911275E-3,.18557E-3,0
KUIPER-00490,2026-140D,2026-07-08T12:14:55.356288,15.37848414,.00058372,51.8771,295.6258,315.5304,44.5214,0,U,69595,999,451,.4886963E-3,.18123E-3,0
